#aV2006  5 25  0  0   .00000000      96 DD+AD WGS84 FIT  NGA
## 1376 345600.00000000   900.00000000 53880  .0000000000000
+   29     1  2  3  4  5  6  7  8  9 10 11 13 14 15 16 17 18
+         19 20 21 22 23 24 25 26 27 28 29 30  0  0  0  0  0
+          0  0  0  0  0  0  0  0  0  0  0  0  0  0  0  0  0
+          0  0  0  0  0  0  0  0  0  0  0  0  0  0  0  0  0
+          0  0  0  0  0  0  0  0  0  0  0  0  0  0  0  0  0
++         0  0  0  0  0  0  0  0  0  0  0  0  0  0  0  0  0
++         0  0  0  0  0  0  0  0  0  0  0  0  0  0  0  0  0
++         0  0  0  0  0  0  0  0  0  0  0  0  0  0  0  0  0
++         0  0  0  0  0  0  0  0  0  0  0  0  0  0  0  0  0
++         0  0  0  0  0  0  0  0  0  0  0  0  0  0  0  0  0
%c cc cc ccc ccc cccc cccc cccc cccc ccccc ccccc ccccc ccccc
%c cc cc ccc ccc cccc cccc cccc cccc ccccc ccccc ccccc ccccc
%f  0.0000000  0.000000000  0.00000000000  0.000000000000000
%f  0.0000000  0.000000000  0.00000000000  0.000000000000000
%i    0    0    0    0      0      0      0      0         0
%i    0    0    0    0      0      0      0      0         0
/*      NGA, ST. LOUIS,MO.                                  
/*   EPHEMERIS COMPUTED FROM  3 DAYS OF DATA                
/* CCCCCCCCCCCCCCCCCCCCCCCCCCCCCCCCCCCCCCCCCCCCCCCCCCCCCCCCC
/* CCCCCCCCCCCCCCCCCCCCCCCCCCCCCCCCCCCCCCCCCCCCCCCCCCCCCCCCC
*  2006  5 25 14 45   .00000000                                                 
P  1 -14257.921694  14283.520028 -17048.175036     55.113187                    
V  1   2933.011328 -21826.946355 -20553.502523       .024211                    
P  2  22905.103466 -12354.355921   4456.863626      -.226800                    
V  2   6807.525030    870.858753 -30978.963959       .028200                    
P  3 -11752.023345  18963.612645  14015.767276    101.450495                    
V  3  -2023.221264 -18455.033187  23311.788778       .030406                    
P  4  25630.571443  -4989.560015  -5823.094499    238.568638                    
V  4  -5890.657524   5092.245351 -30140.743232       .090175                    
P  5  -6636.801538 -19559.793529 -16985.353457     42.328521                    
V  5  18689.635379  10212.213900 -19118.639451       .504031                    
P  6  -8256.804048 -20775.129468  14481.319353    539.355845                    
V  6   4880.949379 -17696.681173 -22989.340720       .156024                    
P  7 -16028.202710    973.263551  21507.456404    538.952655                    
V  7   2280.816371 -26508.867346   2814.584737       .019523                    
P  8  23165.717295   1535.542522  13119.695987    -66.848617                    
V  8 -15273.343961   7007.369436  25470.945970      -.011951                    
P  9   5597.495136 -17418.124591 -19702.797165     21.664745                    
V  9  22488.856372  -8314.051856  14418.143029       .015114                    
P 10  11734.687713  -9483.897060  21781.531814     83.985000                    
V 10  21214.783672  18009.517949  -3270.590670       .005838                    
P 11  -2591.866602  18639.660084 -18727.600821    329.328513                    
V 11 -21935.551152   9939.425033  13225.623871       .023953                    
P 13   6335.106509  20787.874179  15219.914848     64.443041                    
V 13  -4756.556122  18856.613941 -23583.157587       .027869                    
P 14 -14486.846986  -2041.456541 -22102.195502    -13.322747                    
V 14   4607.335310 -27768.806530   -503.687426       .007796                    
P 15 -23308.525333  -2299.899894  12747.006225    618.213211                    
V 15  14969.566290  -6777.188970  25428.009552       .060550                    
P 16 -16273.708837   5124.042850  20472.040060     45.109590                    
V 16 -19352.301833 -17032.517727 -11062.478754       .024820                    
P 17  14863.657705   3455.687813 -21749.995603     94.941670                    
V 17  -4331.455342  27253.888737   1276.363707       .025353                    
P 18 -19198.288942 -18523.978721   1758.760787   -236.735988                    
V 18   3319.371841   -602.351991  31380.700530      -.015526                    
P 19  -7789.137252  25174.701705   3211.160291     -9.013725                    
V 19  -1995.687232  -4479.757106  31381.779867       .020049                    
P 20   8360.108458  20216.471029 -15178.729250    -26.361756                    
V 20 -16268.064249 -10222.357229 -22685.554812       .005784                    
P 21 -17178.069230  -8408.562929  18699.771314     31.111110                    
V 21  21764.936701  -8960.923349  15481.956789       .026079                    
P 22 -22215.189948  -9608.499859 -10798.190985     99.657999                    
V 22  -8645.237105 -11253.326860  27401.942572       .038902                    
P 23   -567.036462  25986.644181   4937.137392    140.815602                    
V 23  -3602.725906   5933.524136 -31200.157125      -.007506                    
P 24  21776.109367   3658.323637 -14718.773775      8.571321                    
V 24 -17417.528213   7828.727313 -23194.159580       .027027                    
P 25 -24215.306058  10939.278265  -1428.107815    134.383667                    
V 25    739.658349  -3639.595547 -31453.528806       .871105                    
P 26   8299.272486 -24101.307767   5860.861923   -125.952090                    
V 26    877.214414   8350.412854  31613.325164      -.117261                    
P 27  16180.877390   8125.338195  20141.147774     50.378669                    
V 27 -21595.208003  10906.483633  13029.568479       .017469                    
P 28  22535.640299  12339.289856  -7116.761473     26.675342                    
V 28   5579.942897   7885.028200  29774.320593      -.009066                    
P 29  10065.512901 -22317.358040  10170.638027    610.282270                    
V 29     68.590091  12775.629784  28891.530890       .058781                    
P 30 -16259.180422 -19545.708142  -8172.700918    261.192138                    
V 30   9769.655398   3621.105198 -28976.048536       .166943                    
EOF
